IRIDIUM 33 DEB          
1 39777U 97051AAJ 26095.80356869  .00013607  00000+0  27786-2 0  9990
2 39777  85.9583 119.5505 0060210 158.2613 202.1173 14.59657602618471
IRIDIUM 33 DEB          
1 39778U 97051AAK 26095.67864245  .00004656  00000+0  10684-2 0  9991
2 39778  86.3818 353.7376 0008272  18.4259 341.7247 14.55346824623496
IRIDIUM 33 DEB          
1 39781U 97051AAN 26095.59678231  .00016458  00000+0  62054-2 0  9995
2 39781  86.3748 210.9938 0169611 265.6251 108.8946 14.23665869 97258
IRIDIUM 33 DEB          
1 40996U 97051ABJ 26095.55248782  .00045427  00000+0  30160-2 0  9996
2 40996  86.3468 307.7859 0006981   9.6119  19.8531 15.07009200641961
IRIDIUM 33 DEB          
1 40998U 97051ABL 26079.55472515  .00001671  00000+0  46851-3 0  9991
2 40998  86.3880  11.8556 0009585 105.6376  20.7682 14.45504117 80944
IRIDIUM 33 DEB          
1 46435U 97051ABN 26092.40415951  .00020647  00000+0  54996-2 0  9995
2 46435  86.2821 146.0705 0191380 270.4412 103.8513 14.38045517 95043
IRIDIUM 33 DEB          
1 46734U 97051ABR 26084.40530841  .00002483  00000+0  73414-3 0  9999
2 46734  86.2626 317.7811 0040390 356.4504 184.0485 14.42665972644906
IRIDIUM 33 DEB          
1 46965U 97051ABX 26095.78903661  .00003911  00000+0  78761-3 0  9999
2 46965  86.3300 290.0820 0017341 301.7591  72.6494 14.61234149639336
IRIDIUM 33 DEB          
1 46971U 97051ACD 26093.25475774  .00058321  00000+0  39692-2 0  9999
2 46971  86.3244 280.2657 0005482 258.8751 226.8335 15.06035361659044
IRIDIUM 33 DEB          
1 46972U 97051ACE 26080.03549722  .00001845  00000+0  45931-3 0  9990
2 46972  86.3927 357.0817 0010612 126.4910 247.8233 14.51201793629985
IRIDIUM 33 DEB          
1 46974U 97051ACG 26095.15300229  .00011326  00000+0  29517-2 0  9994
2 46974  86.2989  55.6277 0088295 167.5723 192.7688 14.47113592591473
